STARLINK-30477          
1 57912U 23146X   26068.06826679 -.00006944  00000+0 -24319-3 0  9992
2 57912  42.9994 314.0913 0001519 268.5622  91.5056 15.27558432137000
BLUEBON                 
1 62688U 25009CH  26068.70316231  .00010452  00000+0  37313-3 0  9992
2 62688  97.4017 152.2033 0001193  43.3900 316.7434 15.29047253 63767
